{
  "type": "FeatureCollection",
  "name": "provinces",
  "crs": {
    "type": "name",
    "properties": {
      "name": "urn:ogc:def:crs:EPSG::3857"
    }
  },
  "features": [
    {
      "type": "Feature",
      "properties": {
        "fid": 1,
        "code": "sea_pacific_01",
        "name": "Ocean",
        "capital": null,
        "culture": null,
        "civs": null,
        "provinceType": null,
        "terrain": null,
        "mapTypes": "sea",
        "resources": null,
        "religion": null,
        "population": null,
        "centerpoint": [
          71,
          1959
        ],
        "position": {
          "x": 0,
          "y": 1898
        },
        "bbox": {
          "w": 179,
          "h": 150
        }
      },
      "geometry": {
        "type": "Polygon",
        "coordinates": [
          [
            [
              0.325107730608664,
              -1900.7719947270023
            ],
            [
              174.40236140657294,
              -1898.7399645284502
            ],
            [
              179.48243690295357,
              -2047.924848272153
            ],
            [
              0.663779430367661,
              -2048.6021916716704
            ],
            [
              0.325107730608664,
              -1900.7719947270023
            ]
          ]
        ]
      }
    },
    {
      "type": "Feature",
      "properties": {
        "fid": 2,
        "code": "far_east ",
        "name": "Far East ",
        "capital": null,
        "culture": null,
        "civs": null,
        "provinceType": "taiga",
        "terrain": "land",
        "mapTypes": "taiga",
        "resources": null,
        "religion": null,
        "population": "low",
        "centerpoint": [
          4010,
          137
        ],
        "position": {
          "x": 3861,
          "y": 0
        },
        "bbox": {
          "w": 235,
          "h": 257
        }
      },
      "geometry": {
        "type": "Polygon",
        "coordinates": [
          [
            [
              3861.0098562967496,
              -0.005870882605443
            ],
            [
              4096.0008661390175,
              0.000253516007468
            ],
            [
              4096.111738068936,
              -237.89746801223964
            ],
            [
              4094.0971221154578,
              -244.31905636395015
            ],
            [
              4094.22303561255,
              -249.22968275055234
            ],
            [
              4087.927360757931,
              -256.0919683420861
            ],
            [
              4084.464739587891,
              -254.95874686825485
            ],
            [
              4074.4546165690485,
              -256.7844925760941
            ],
            [
              4076.5951460196184,
              -247.78167753399015
            ],
            [
              4075.934100159883,
              -240.19538933417522
            ],
            [
              4077.476540499265,
              -232.95536325136425
            ],
            [
              4072.44000061557,
              -228.92613134440856
            ],
            [
              4072.691827609755,
              -219.86035955375826
            ],
            [
              4063.1224018307353,
              -219.86035955375826
            ],
            [
              4062.8705748365505,
              -204.24708591430502
            ],
            [
              4055.5675920051935,
              -202.73612394919664
            ],
            [
              4053.8048030459004,
              -195.43314111783945
            ],
            [
              4053.5529760517156,
              -191.40390921088377
            ],
            [
              4045.1167717465282,
              -188.00424478938993
            ],
            [
              4046.124079723267,
              -175.79063557143047
            ],
            [
              4042.346674810496,
              -173.39827912667553
            ],
            [
              4042.4725883075885,
              -168.4876527400733
            ],
            [
              4051.5383600982386,
              -156.77769751048328
            ],
            [
              4046.6277337116367,
              -150.35610915877263
            ],
            [
              4046.2499932203596,
              -144.69000178961616
            ],
            [
              4055.063938016825,
              -143.30495332160012
            ],
            [
              4060.3523048947045,
              -140.53485638556808
            ],
            [
              4061.611439865628,
              -118.49999439440404
            ],
            [
              4065.011104287122,
              -112.45614653397048
            ],
            [
              4065.3888447783993,
              -104.01994222878196
            ],
            [
              4073.0695681010334,
              -98.47974835671786
            ],
            [
              4071.558606135925,
              -84.37743668237293
            ],
            [
              4069.0403361940776,
              -80.60003176960197
            ],
            [
              4066.773893246415,
              -75.68940538299971
            ],
            [
              4064.759277292937,
              -72.54156795569058
            ],
            [
              4069.543990182447,
              -64.35719064468682
            ],
            [
              4062.492834345275,
              -66.37180659816467
            ],
            [
              4058.085861947042,
              -68.13459555745779
            ],
            [
              4061.7373533627206,
              -79.71863728995541
            ],
            [
              4066.8998067435073,
              -84.62926367655766
            ],
            [
              4059.848650906335,
              -88.532582086421
            ],
            [
              4055.693505502287,
              -91.93224650791487
            ],
            [
              4056.3230729877487,
              -100.62027780728809
            ],
            [
              4053.427062554624,
              -106.28638517644453
            ],
            [
              4048.768263162207,
              -104.27176922296668
            ],
            [
              4043.353982787235,
              -99.36114283636442
            ],
            [
              4041.8430208221266,
              -91.8063330108225
            ],
            [
              4042.8503287988656,
              -85.63657165329658
            ],
            [
              4039.8284048686487,
              -87.65118760677444
            ],
            [
              4036.3028269500624,
              -90.29537104571412
            ],
            [
              4032.5254220372917,
              -90.16945754862175
            ],
            [
              4028.244363136151,
              -89.66580356025229
            ],
            [
              4025.3483527030266,
              -87.90301460095917
            ],
            [
              4023.081909755364,
              -88.91032257769808
            ],
            [
              4018.9267643513163,
              -93.44320847302325
            ],
            [
              4021.9486882815318,
              -100.24253731601094
            ],
            [
              4016.1566674152828,
              -109.56013610084595
            ],
            [
              4008.0982036013716,
              -115.35215696709476
            ],
            [
              4009.3573385722952,
              -124.66975575192977
            ],
            [
              4018.67493735713,
              -123.66244777519084
            ],
            [
              4006.839068630448,
              -135.7501434960579
            ],
            [
              3999.284258804906,
              -136.7574514727968
            ],
            [
              3991.729448979364,
              -136.7574514727968
            ],
            [
              3991.9812759735487,
              -141.7939913564914
            ],
            [
              3975.4866078544483,
              -145.88618001199322
            ],
            [
              3969.6316302396535,
              -146.2009637547241
            ],
            [
              3969.379803245469,
              -141.4162508652143
            ],
            [
              3973.4090351524246,
              -138.89798092336702
            ],
            [
              3969.379803245469,
              -134.17622478240335
            ],
            [
              3965.980138823975,
              -134.99466251350373
            ],
            [
              3961.6990799228347,
              -131.97273858328697
            ],
            [
              3962.5175176539346,
              -139.77937540301363
            ],
            [
              3959.2437667295335,
              -142.48651559049944
            ],
            [
              3957.2291507760556,
              -141.1644238710296
            ],
            [
              3956.0959293022242,
              -134.99466251350378
            ],
            [
              3950.7446056757985,
              -135.93901374169653
            ],
            [
              3947.659724997036,
              -140.28302939138308
            ],
            [
              3942.875012107526,
              -145.19365577798527
            ],
            [
              3937.020034492731,
              -141.29033736812198
            ],
            [
              3926.31738723988,
              -142.6124290875918
            ],
            [
              3922.0363283387396,
              -141.35329411666814
            ],
            [
              3916.3702209695834,
              -140.0941591457445
            ],
            [
              3913.368742510412,
              -145.68380337192792
            ],
            [
              3906.3953486694268,
              -146.50420264733796
            ],
            [
              3904.9596499374593,
              -142.19710645143527
            ],
            [
              3897.986256096474,
              -142.4022062702878
            ],
            [
              3889.987363161226,
              -143.22260554569783
            ],
            [
              3889.3720637046686,
              -138.91550934979514
            ],
            [
              3885.65877738549,
              -139.58348244227756
            ],
            [
              3883.326607592345,
              -140.74956733884994
            ],
            [
              3879.7554725965915,
              -147.38167518810536
            ],
            [
              3876.3300982129103,
              -147.52743580017693
            ],
            [
              3867.2929402644745,
              -142.7173356018158
            ],
            [
              3861.0098562967496,
              -0.005870882605443
            ]
          ]
        ]
      }
    },
    {
      "type": "Feature",
      "properties": {
        "fid": 3,
        "code": "sicily",
        "name": "Sicily",
        "capital": "Syracuse",
        "culture": "siceliot",
        "civs": "cart",
        "provinceType": "land",
        "terrain": "island",
        "mapTypes": null,
        "resources": null,
        "religion": null,
        "population": "medium",
        "centerpoint": [
          1808,
          615
        ],
        "position": {
          "x": 1779,
          "y": 600
        },
        "bbox": {
          "w": 58,
          "h": 39
        }
      },
      "geometry": {
        "type": "Polygon",
        "coordinates": [
          [
            [
              1781.1344129719682,
              -604.6726018363144
            ],
            [
              1785.0599233883302,
              -602.5845643808026
            ],
            [
              1789.7371272886767,
              -604.422037341653
            ],
            [
              1794.247288192582,
              -600.4965269252908
            ],
            [
              1798.8409705947079,
              -602.1669568897003
            ],
            [
              1802.265352021747,
              -605.0902093274167
            ],
            [
              1806.1908624381092,
              -605.7583813131805
            ],
            [
              1810.3669373491325,
              -605.507816818519
            ],
            [
              1816.3804852210064,
              -606.5100747971647
            ],
            [
              1825.1502425341557,
              -602.7516073772435
            ],
            [
              1830.2450539256045,
              -603.5033008612278
            ],
            [
              1835.339865317053,
              -602.3339998861412
            ],
            [
              1837.7619887654466,
              -604.9231663309757
            ],
            [
              1836.926773783242,
              -607.4288112775898
            ],
            [
              1829.1592744487382,
              -616.532654583621
            ],
            [
              1829.3263174451793,
              -625.4694548932114
            ],
            [
              1831.4978763989116,
              -628.3091858327073
            ],
            [
              1827.9899734736516,
              -637.9141581280613
            ],
            [
              1825.90193601814,
              -639.2505020995889
            ],
            [
              1820.9741676231322,
              -635.6590776761086
            ],
            [
              1815.4617487405812,
              -634.823862693904
            ],
            [
              1812.8725822957467,
              -629.2279223131325
            ],
            [
              1807.1095989185342,
              -628.4762288291482
            ],
            [
              1801.4301370395424,
              -625.5529763914318
            ],
            [
              1795.5836321641095,
              -619.8735145124399
            ],
            [
              1795.834196658771,
              -621.1263369857469
            ],
            [
              1790.32177777622,
              -619.2053425266761
            ],
            [
              1786.81387485096,
              -617.2843480676053
            ],
            [
              1780.6332839826453,
              -615.0292676156527
            ],
            [
              1779.2969400111178,
              -609.767413227763
            ],
            [
              1781.1344129719682,
              -604.6726018363144
            ]
          ]
        ]
      }
    },
    {
      "type": "Feature",
      "properties": {
        "fid": 4,
        "code": "calabria",
        "name": "Calabria",
        "capital": null,
        "culture": "italic",
        "civs": "rome",
        "provinceType": "land",
        "terrain": "plains",
        "mapTypes": null,
        "resources": null,
        "religion": null,
        "population": "medium",
        "centerpoint": [
          1853,
          576
        ],
        "position": {
          "x": 1819,
          "y": 543
        },
        "bbox": {
          "w": 67,
          "h": 71
        }
      },
      "geometry": {
        "type": "Polygon",
        "coordinates": [
          [
            [
              1818.7657602294232,
              -559.7596259020613
            ],
            [
              1842.8548042318391,
              -542.8660106276398
            ],
            [
              1846.5829227083477,
              -545.1361763829833
            ],
            [
              1855.147139026834,
              -547.8183759992125
            ],
            [
              1862.582008138487,
              -549.5123968094626
            ],
            [
              1863.7113553453203,
              -552.5239893610183
            ],
            [
              1865.570072623233,
              -554.6885715074487
            ],
            [
              1871.4991454591081,
              -557.6060517917682
            ],
            [
              1878.1811164328722,
              -560.4294198088517
            ],
            [
              1880.1574740448305,
              -564.1939104982962
            ],
            [
              1886.1806591479417,
              -568.8054115928657
            ],
            [
              1883.7337401998027,
              -582.2634658076299
            ],
            [
              1877.4282182949833,
              -579.5342100577826
            ],
            [
              1876.2988710881498,
              -572.6640145495463
            ],
            [
              1873.6637276055387,
              -570.3112078686435
            ],
            [
              1865.8524094249412,
              -569.5583097307546
            ],
            [
              1863.029041407858,
              -567.393727584324
            ],
            [
              1863.029041407858,
              -565.5114822396017
            ],
            [
              1858.041091244344,
              -567.5819521187963
            ],
            [
              1854.4648250893715,
              -574.6403721615047
            ],
            [
              1851.547344805052,
              -577.9343015147687
            ],
            [
              1852.8649165463578,
              -581.4164554025049
            ],
            [
              1862.276143269969,
              -588.192538643505
            ],
            [
              1862.4643678044408,
              -595.5332954879216
            ],
            [
              1857.758754442635,
              -597.3214285654078
            ],
            [
              1857.2881931064544,
              -602.4034909961579
            ],
            [
              1853.0531410808294,
              -604.7562976770607
            ],
            [
              1850.8885589343988,
              -609.2736865043942
            ],
            [
              1848.9122013224405,
              -612.5676158576581
            ],
            [
              1842.0420058142042,
              -613.7910753317276
            ],
            [
              1839.6891991333014,
              -611.6264931852969
            ],
            [
              1837.618729254107,
              -606.4503184873107
            ],
            [
              1841.853781279732,
              -601.5564805910328
            ],
            [
              1841.8537812797322,
              -591.4864679967687
            ],
            [
              1837.9951783230515,
              -581.9811290059214
            ],
            [
              1835.9247084438573,
              -573.3228004201989
            ],
            [
              1828.5839515994405,
              -573.9815862908516
            ],
            [
              1824.6312363755237,
              -570.4053201358794
            ],
            [
              1821.9019806256765,
              -565.6055945068376
            ],
            [
              1822.9372155652738,
              -562.4057774208097
            ],
            [
              1818.7657602294232,
              -559.7596259020613
            ]
          ]
        ]
      }
    },
    {
      "type": "Feature",
      "properties": {
        "fid": 5,
        "code": "italia",
        "name": "italia",
        "capital": "Roma",
        "culture": "italic",
        "civs": "rome",
        "provinceType": "land",
        "terrain": "hills",
        "mapTypes": null,
        "resources": null,
        "religion": null,
        "population": null,
        "centerpoint": [
          1790,
          522
        ],
        "position": {
          "x": 1747,
          "y": 472
        },
        "bbox": {
          "w": 104,
          "h": 89
        }
      },
      "geometry": {
        "type": "Polygon",
        "coordinates": [
          [
            [
              1746.787203934124,
              -486.12440065653595
            ],
            [
              1786.2625883575406,
              -471.9990234826616
            ],
            [
              1787.3976633090128,
              -480.07066758201836
            ],
            [
              1792.1902019930058,
              -484.2326090707492
            ],
            [
              1798.3700545065758,
              -485.4938034612737
            ],
            [
              1806.0633402887754,
              -493.3132086825256
            ],
            [
              1809.2163262650865,
              -497.4751501712564
            ],
            [
              1810.6036400946634,
              -507.31246641734754
            ],
            [
              1812.117073363293,
              -515.005752199547
            ],
            [
              1827.1252866105344,
              -527.9960544219493
            ],
            [
              1831.161108660213,
              -530.5184432029984
            ],
            [
              1845.1603663950348,
              -529.0050099343689
            ],
            [
              1850.3312633961852,
              -534.932623569834
            ],
            [
              1843.6469331264054,
              -538.3378484242502
            ],
            [
              1842.8902164920908,
              -543.6348648644531
            ],
            [
              1839.1223982503989,
              -545.5936574022368
            ],
            [
              1819.1324671605862,
              -559.9712734542156
            ],
            [
              1817.114556135747,
              -561.1063484056876
            ],
            [
              1815.2858242694865,
              -557.8272429903241
            ],
            [
              1811.3761216588607,
              -556.6921680388521
            ],
            [
              1807.5925384872876,
              -558.2056013074813
            ],
            [
              1808.6014939997071,
              -553.7283612211195
            ],
            [
              1807.1511204506041,
              -549.629479451915
            ],
            [
              1803.178358120452,
              -546.5395531951301
            ],
            [
              1793.782459911045,
              -546.2873143170252
            ],
            [
              1789.1791003856306,
              -546.2873143170252
            ],
            [
              1783.5667853477967,
              -542.1884325478206
            ],
            [
              1775.3690218093875,
              -530.5223844354695
            ],
            [
              1772.15297611355,
              -525.5406665928979
            ],
            [
              1769.9458859301326,
              -526.1712637881601
            ],
            [
              1767.7387957467147,
              -521.0634265065361
            ],
            [
              1760.171629403568,
              -519.7391723964854
            ],
            [
              1755.1899115609963,
              -523.585815287585
            ],
            [
              1753.5503588533145,
              -522.0723820189556
            ],
            [
              1755.4421504391012,
              -517.4059627740152
            ],
            [
              1757.96453922015,
              -517.8473808106987
            ],
            [
              1759.8563308059368,
              -516.523126700648
            ],
            [
              1758.1537183787289,
              -512.550364370496
            ],
            [
              1753.6134185728408,
              -508.5145423208177
            ],
            [
              1752.0369255846847,
              -506.4966312959784
            ],
            [
              1750.6496117551078,
              -502.20857036819524
            ],
            [
              1748.2533424131113,
              -499.307823269989
            ],
            [
              1748.474051431453,
              -489.24979800555644
            ],
            [
              1746.787203934124,
              -486.12440065653595
            ]
          ]
        ]
      }
    },
    {
      "type": "Feature",
      "properties": {
        "fid": 6,
        "code": "cisalpina",
        "name": "Cisalpina",
        "capital": "Mediolanum",
        "culture": "celt",
        "civs": "rome",
        "provinceType": "land",
        "terrain": "hills",
        "mapTypes": null,
        "resources": null,
        "religion": null,
        "population": "high",
        "centerpoint": [
          1744,
          465
        ],
        "position": {
          "x": 1692,
          "y": 428
        },
        "bbox": {
          "w": 113,
          "h": 61
        }
      },
      "geometry": {
        "type": "Polygon",
        "coordinates": [
          [
            [
              1746.7940833642776,
              -486.1269051023917
            ],
            [
              1786.262475540566,
              -471.9984717867216
            ],
            [
              1789.5965085866767,
              -465.3451329896427
            ],
            [
              1787.7114148086519,
              -460.3786359206157
            ],
            [
              1785.6813138169327,
              -458.312283125473
            ],
            [
              1785.9350764408978,
              -456.7897073816837
            ],
            [
              1791.445350561278,
              -453.85331130437584
            ],
            [
              1796.8468692713877,
              -453.1645270393283
            ],
            [
              1803.2634384773569,
              -447.9805191497599
            ],
            [
              1805.5110502896173,
              -447.2554830812888
            ],
            [
              1802.1033807678039,
              -428.62205612158147
            ],
            [
              1775.784571482303,
              -428.62205612158147
            ],
            [
              1759.2537491211617,
              -434.05982663511475
            ],
            [
              1740.8378329819957,
              -436.52494926791644
            ],
            [
              1725.0320466893256,
              -435.65490598575116
            ],
            [
              1717.6366787909205,
              -438.70005747332976
            ],
            [
              1709.2262603966558,
              -448.9955696456194
            ],
            [
              1702.7009357804159,
              -454.65085097969404
            ],
            [
              1692.2604163944318,
              -460.5961467411571
            ],
            [
              1694.1455101724569,
              -474.9518608968849
            ],
            [
              1698.6407337969777,
              -481.1871710857364
            ],
            [
              1704.6132184110088,
              -489.3528898068921
            ],
            [
              1711.9723345059906,
              -487.79406225967927
            ],
            [
              1715.8875292757346,
              -480.03617632703845
            ],
            [
              1718.7514217461953,
              -478.33234156613133
            ],
            [
              1719.6214650283607,
              -479.05737763460246
            ],
            [
              1721.9778322508917,
              -477.02727664288335
            ],
            [
              1723.4641561912574,
              -476.3022405744123
            ],
            [
              1725.6030125932473,
              -475.35969368539986
            ],
            [
              1730.2069916280388,
              -477.4260464805425
            ],
            [
              1731.6208119615576,
              -479.05737763460246
            ],
            [
              1735.6447621415723,
              -479.81866550649715
            ],
            [
              1737.3848487059029,
              -481.01497501947443
            ],
            [
              1739.741215928434,
              -482.21128453245177
            ],
            [
              1745.7952671001678,
              -484.82141437894774
            ],
            [
              1746.7940833642776,
              -486.1269051023917
            ]
          ]
        ]
      }
    },
    {
      "type": "Feature",
      "properties": {
        "fid": 7,
        "code": "crete",
        "name": "Crete",
        "capital": "Knossos",
        "culture": "greek",
        "civs": "mace",
        "provinceType": "land",
        "terrain": "island",
        "mapTypes": null,
        "resources": null,
        "religion": null,
        "population": null,
        "centerpoint": [
          1997,
          669
        ],
        "position": {
          "x": 1970,
          "y": 659
        },
        "bbox": {
          "w": 51,
          "h": 16
        }
      },
      "geometry": {
        "type": "Polygon",
        "coordinates": [
          [
            [
              1972.0005713778444,
              -668.3116194670739
            ],
            [
              1977.9054136325278,
              -670.3602382084948
            ],
            [
              1978.7489625260541,
              -672.4088569499156
            ],
            [
              1982.364172069738,
              -672.5293639347051
            ],
            [
              1983.0872139784747,
              -670.8422661476526
            ],
            [
              1989.1125632179478,
              -670.6012521780738
            ],
            [
              1993.8123356247368,
              -675.5420385544417
            ],
            [
              1998.8736289858941,
              -675.0600106152838
            ],
            [
              2004.1759363166304,
              -675.0600106152838
            ],
            [
              2009.1167226929983,
              -673.7344337825997
            ],
            [
              2011.04483444963,
              -674.9395036304943
            ],
            [
              2015.9856208259978,
              -674.577982676126
            ],
            [
              2020.8059002175762,
              -671.6858150411789
            ],
            [
              2021.4912836935662,
              -670.7142274763138
            ],
            [
              2019.5179818176387,
              -668.4697848846101
            ],
            [
              2017.845947403685,
              -667.7166162296758
            ],
            [
              2016.098596124238,
              -669.5844744939124
            ],
            [
              2013.5679494436592,
              -669.7652349710966
            ],
            [
              2012.0013586413963,
              -668.2588976612283
            ],
            [
              2011.15780974787,
              -667.4153487677021
            ],
            [
              2008.1451351281335,
              -667.2948417829126
            ],
            [
              2006.819558295449,
              -667.4756022600968
            ],
            [
              1996.2450703801742,
              -663.3783647772553
            ],
            [
              1992.358720120714,
              -665.4872370110709
            ],
            [
              1988.2614826378729,
              -665.7885044730444
            ],
            [
              1985.9115964344783,
              -665.1859695490972
            ],
            [
              1979.524726240637,
              -659.1304935634269
            ],
            [
              1975.969770189348,
              -660.0041692031505
            ],
            [
              1973.9211514479273,
              -661.5105065130186
            ],
            [
              1970.6072093662171,
              -665.426983518676
            ],
            [
              1972.0005713778444,
              -668.3116194670739
            ]
          ]
        ]
      }
    },
    {
      "type": "Feature",
      "properties": {
        "fid": 8,
        "code": "lacedonia",
        "name": "Lacedonia",
        "capital": "Spart",
        "culture": "greek",
        "civs": "spart",
        "provinceType": "land",
        "terrain": "hills",
        "mapTypes": null,
        "resources": null,
        "religion": null,
        "population": null,
        "centerpoint": [
          1957,
          629
        ],
        "position": {
          "x": 1932,
          "y": 604
        },
        "bbox": {
          "w": 42,
          "h": 49
        }
      },
      "geometry": {
        "type": "Polygon",
        "coordinates": [
          [
            [
              1967.1890132125352,
              -609.429094148489
            ],
            [
              1961.7477749870318,
              -611.8776513499654
            ],
            [
              1957.2134097991125,
              -610.6987164011064
            ],
            [
              1954.6741652938776,
              -610.2452798823144
            ],
            [
              1953.4045430412602,
              -606.4364131244621
            ],
            [
              1950.9559858397836,
              -605.6202273906366
            ],
            [
              1944.698561880455,
              -603.9878559229857
            ],
            [
              1940.3455713000521,
              -606.3457258207037
            ],
            [
              1936.8994537572335,
              -609.7918433635225
            ],
            [
              1933.5440235181732,
              -611.1521529198983
            ],
            [
              1932.1837139617974,
              -615.505143500301
            ],
            [
              1933.5440235181732,
              -618.8605737393614
            ],
            [
              1934.8136457707906,
              -620.5836325107707
            ],
            [
              1937.6249521873006,
              -620.6743198145291
            ],
            [
              1937.8063267948173,
              -632.0102327843276
            ],
            [
              1939.2573236549513,
              -637.0887217947973
            ],
            [
              1941.7058808564277,
              -641.2603377676832
            ],
            [
              1946.5123079556222,
              -641.0789631601664
            ],
            [
              1947.6005556007228,
              -638.5397186549314
            ],
            [
              1948.053992119515,
              -635.1842884158712
            ],
            [
              1950.3211747134746,
              -635.1842884158712
            ],
            [
              1949.958425498441,
              -640.8069012488912
            ],
            [
              1950.5932366247498,
              -644.7064553105018
            ],
            [
              1956.3972240652865,
              -645.1598918292938
            ],
            [
              1957.3947844066288,
              -639.4465916925153
            ],
            [
              1960.0247162156222,
              -638.902467869965
            ],
            [
              1961.7477749870316,
              -641.8951488939919
            ],
            [
              1963.3801464546825,
              -642.8927092353341
            ],
            [
              1962.0198368983067,
              -645.2505791330522
            ],
            [
              1960.7502146456893,
              -647.9711982458039
            ],
            [
              1961.83846229079,
              -650.7825046623138
            ],
            [
              1963.017397239649,
              -652.8683126487568
            ],
            [
              1965.5566417448838,
              -651.7800650036562
            ],
            [
              1965.7380163524006,
              -648.9687585871461
            ],
            [
              1964.8311433148167,
              -646.8829506007032
            ],
            [
              1964.2870194922664,
              -644.4343933992267
            ],
            [
              1963.8335829734744,
              -643.2554584503677
            ],
            [
              1967.5517624275683,
              -643.8902695766764
            ],
            [
              1969.2748211989776,
              -642.7113346278173
            ],
            [
              1968.912071983944,
              -639.7186536037905
            ],
            [
              1967.2797005162931,
              -635.7284122384215
            ],
            [
              1967.2797005162931,
              -632.1916073918443
            ],
            [
              1961.0222765569645,
              -623.3042516235222
            ],
            [
              1962.9267099358906,
              -621.853254763388
            ],
            [
              1968.186573553877,
              -626.9317437738578
            ],
            [
              1973.7184990831388,
              -627.2038056851329
            ],
            [
              1974.2626229056887,
              -623.9844064017101
            ],
            [
              1973.7184990831383,
              -621.4905055483543
            ],
            [
              1971.542003792937,
              -619.2686666062739
            ],
            [
              1969.4561958064942,
              -617.2282022717102
            ],
            [
              1968.9120719839439,
              -613.918115684529
            ],
            [
              1969.5468831102526,
              -612.6031497800324
            ],
            [
              1967.1890132125352,
              -609.429094148489
            ]
          ]
        ]
      }
    },
    {
      "type": "Feature",
      "properties": {
        "fid": 9,
        "code": "achaia",
        "name": "Achaia",
        "capital": "Athenas",
        "culture": "greek",
        "civs": "athen",
        "provinceType": "land",
        "terrain": "coastal",
        "mapTypes": null,
        "resources": null,
        "religion": null,
        "population": null,
        "centerpoint": [
          1974,
          608
        ],
        "position": {
          "x": 1928,
          "y": 576
        },
        "bbox": {
          "w": 72,
          "h": 52
        }
      },
      "geometry": {
        "type": "Polygon",
        "coordinates": [
          [
            [
              1930.557063123717,
              -595.9587577602097
            ],
            [
              1962.489573555967,
              -576.4112864208417
            ],
            [
              1969.353571125516,
              -587.9010214829129
            ],
            [
              1973.105126813722,
              -589.5359500405103
            ],
            [
              1970.0308043062182,
              -592.1948235605136
            ],
            [
              1966.457943013714,
              -589.8683092305107
            ],
            [
              1963.21744091121,
              -588.5388724705091
            ],
            [
              1963.7159796962105,
              -591.2808357880125
            ],
            [
              1966.7903022037144,
              -595.5184154605176
            ],
            [
              1971.6095104587203,
              -597.0971216130197
            ],
            [
              1976.4287187137263,
              -589.2035908505098
            ],
            [
              1978.672143246229,
              -589.8683092305107
            ],
            [
              1980.9155677787319,
              -592.527182750514
            ],
            [
              1978.9214126387294,
              -594.936786878017
            ],
            [
              1987.1473025912396,
              -598.260378778021
            ],
            [
              1987.56275157874,
              -604.9075625780293
            ],
            [
              1990.1385353012429,
              -607.4833463005326
            ],
            [
              1994.209935378748,
              -607.9818850855332
            ],
            [
              1995.2901027462492,
              -610.5576688080364
            ],
            [
              1995.123923151249,
              -612.3856443530387
            ],
            [
              1998.5306048487532,
              -614.1305301005409
            ],
            [
              2000.690939583756,
              -616.0415954430432
            ],
            [
              1999.7769518112548,
              -618.7004689630465
            ],
            [
              1997.9489762662527,
              -617.7864811905454
            ],
            [
              1996.619539506251,
              -615.5430566580426
            ],
            [
              1995.9548211262502,
              -613.9643505055407
            ],
            [
              1993.8775761887475,
              -614.7952484805417
            ],
            [
              1988.7260087437412,
              -613.7981709105404
            ],
            [
              1985.9840454262378,
              -611.1392973905372
            ],
            [
              1984.2391596787356,
              -613.0503627330395
            ],
            [
              1986.150225021238,
              -614.7952484805417
            ],
            [
              1986.4825842112384,
              -617.2879424055448
            ],
            [
              1987.1473025912392,
              -618.8666485580467
            ],
            [
              1990.1385353012429,
              -619.3651873430473
            ],
            [
              1990.5539842887433,
              -621.2762526855497
            ],
            [
              1990.6370740862435,
              -624.1843955980534
            ],
            [
              1991.9665108462452,
              -625.7631017505553
            ],
            [
              1990.8863434787438,
              -628.0065262830581
            ],
            [
              1987.2303923887393,
              -627.0925385105569
            ],
            [
              1987.2303923887393,
              -624.9322037755542
            ],
            [
              1988.0612903637402,
              -622.9380486355518
            ],
            [
              1987.1473025912392,
              -620.9438934955493
            ],
            [
              1986.150225021238,
              -619.5313669380475
            ],
            [
              1985.4855066412372,
              -618.9497383555469
            ],
            [
              1983.4082617037345,
              -619.2820975455472
            ],
            [
              1980.6662983862311,
              -618.7004689630465
            ],
            [
              1979.5030412212298,
              -616.7894036205441
            ],
            [
              1977.6750656762274,
              -617.8695709880454
            ],
            [
              1976.1794493212255,
              -619.7806363305478
            ],
            [
              1973.6867553962225,
              -619.6975465330478
            ],
            [
              1973.4374860037221,
              -615.5430566580426
            ],
            [
              1971.8587798512203,
              -613.7981709105404
            ],
            [
              1970.2800736987183,
              -612.8010933405392
            ],
            [
              1969.6153553187175,
              -610.3914892130363
            ],
            [
              1968.3690083562162,
              -611.6378361755378
            ],
            [
              1967.2057511912149,
              -608.9789626555345
            ],
            [
              1963.6328898987103,
              -606.9017177180319
            ],
            [
              1961.0571061762073,
              -605.1568319705298
            ],
            [
              1956.7364367062019,
              -603.4950360205277
            ],
            [
              1954.1606529836988,
              -605.0737421730297
            ],
            [
              1951.8341386536958,
              -602.7472278430267
            ],
            [
              1948.676726348692,
              -601.4177910830251
            ],
            [
              1947.0149303986898,
              -603.4119462230276
            ],
            [
              1945.602403841188,
              -604.4921135905289
            ],
            [
              1941.9464527511836,
              -603.6612156155279
            ],
            [
              1939.7030282186809,
              -602.3317788555263
            ],
            [
              1935.6316281411757,
              -601.9163298680257
            ],
            [
              1933.7205627986734,
              -604.4090237930288
            ],
            [
              1931.6433178611708,
              -602.7472278430267
            ],
            [
              1928.4028157586667,
              -598.0111093855209
            ],
            [
              1930.557063123717,
              -595.9587577602097
            ]
          ]
        ]
      }
    },
    {
      "type": "Feature",
      "properties": {
        "fid": 1,
        "code": "carthage",
        "name": "Carthage",
        "capital": "Carthage",
        "culture": "carthagenes",
        "civs": "cart",
        "provinceType": "land",
        "terrain": "coastal",
        "mapTypes": null,
        "resources": null,
        "religion": null,
        "population": null,
        "centerpoint": [
          1730,
          635
        ],
        "position": {
          "x": 1686,
          "y": 617
        },
        "bbox": {
          "w": 73,
          "h": 66
        }
      },
      "geometry": {
        "type": "Polygon",
        "coordinates": [
          [
            [
              1686.2146271625422,
              -626.1833318540105
            ],
            [
              1691.9827438617497,
              -622.6661875252255
            ],
            [
              1695.921945509989,
              -625.6205887614049
            ],
            [
              1700.2832044776824,
              -624.9171598956478
            ],
            [
              1704.2224061259215,
              -628.2936184512815
            ],
            [
              1708.7243508667664,
              -625.6205887614049
            ],
            [
              1711.5380663297944,
              -627.0274464929189
            ],
            [
              1714.633153339125,
              -625.339217215102
            ],
            [
              1719.838526945727,
              -624.3544168030422
            ],
            [
              1721.5267562235438,
              -622.5255017520741
            ],
            [
              1721.8081277698466,
              -621.4000155668629
            ],
            [
              1723.3556712745121,
              -620.2745293816516
            ],
            [
              1727.2948729227512,
              -620.1338436085002
            ],
            [
              1732.6409323025046,
              -617.0387565991695
            ],
            [
              1737.9869916822577,
              -619.9931578353488
            ],
            [
              1742.2075648767998,
              -618.8676716501376
            ],
            [
              1742.7703079694054,
              -623.3696163909825
            ],
            [
              1742.348250649951,
              -626.6053891734647
            ],
            [
              1745.865394978736,
              -629.2784188633414
            ],
            [
              1757.1202568308481,
              -624.3544168030422
            ],
            [
              1759.6526007475734,
              -627.4495038123731
            ],
            [
              1755.29134177988,
              -634.2024209236404
            ],
            [
              1748.960481988067,
              -639.5484803033936
            ],
            [
              1748.25705312231,
              -642.502881539573
            ],
            [
              1749.2418535343697,
              -645.4572827757524
            ],
            [
              1754.7285986872744,
              -650.2405990629001
            ],
            [
              1756.698199511394,
              -654.3204864842907
            ],
            [
              1755.0099702335772,
              -659.3851743177411
            ],
            [
              1747.27225271025,
              -672.4689512208213
            ],
            [
              1741.3634502378914,
              -674.7199235912437
            ],
            [
              1734.8919046729268,
              -677.252267507969
            ],
            [
              1734.0477900340184,
              -682.7390126608736
            ],
            [
              1686.2146271625422,
              -626.1833318540105
            ]
          ]
        ]
      }
    }
  ]
}