{
"type": "FeatureCollection",
"name": "provinces",
"crs": { "type": "name", "properties": { "name": "urn:ogc:def:crs:EPSG::3857" } },
"features": [
{ "type": "Feature", "properties": { "code": "italia", "name": "italia", "provinceType": "land", "terrain": "hills", "resource": null, "culture": "italic", "city": "rome", "civs": "rome", "mapTypes": null, "maskBounds": null }, "geometry": { "type": "Polygon", "coordinates": [ [ [ 1217.555858319219396, -1058.555163343043432 ], [ 1196.727202117270735, -1052.091097625197108 ], [ 1196.727202117270735, -1045.627031907351011 ], [ 1139.987069705065551, -1000.378571882428105 ], [ 1124.904249696757915, -999.66034235822292 ], [ 1119.15841350311689, -982.422833777299957 ], [ 1109.82142968845028, -979.549915680479444 ], [ 1106.230282067424696, -970.21293186581272 ], [ 1099.047986825373528, -970.931161390017905 ], [ 1101.202675397988742, -958.003029954325598 ], [ 1089.71100301070669, -940.047291849197336 ], [ 1088.992773486501619, -922.091553744069188 ], [ 1073.191723953988912, -910.599881356787137 ], [ 1034.407329646912103, -893.362372775864287 ], [ 1195.290743068860593, -832.671977980531096 ], [ 1198.522775927783641, -838.417814174172122 ], [ 1202.473038310911761, -843.086306081505427 ], [ 1203.909497359322131, -851.34594560986443 ], [ 1211.810022125578371, -854.577978468787478 ], [ 1208.218874504552787, -863.555847521351552 ], [ 1203.550382597219595, -863.196732759249016 ], [ 1196.727202117270735, -865.351421331864344 ], [ 1202.113923548809225, -893.721487537966823 ], [ 1210.732677839270764, -903.417586114736082 ], [ 1224.379038799168256, -912.754569929402805 ], [ 1231.561334041219425, -916.34571755042839 ], [ 1232.997793089629795, -919.936865171453974 ], [ 1242.334776904296405, -923.168898030377136 ], [ 1249.157957384245037, -928.914734224018048 ], [ 1260.649629771527088, -931.069422796633489 ], [ 1263.522547868347601, -936.09702946606933 ], [ 1273.218646445116747, -956.207456143812919 ], [ 1271.050153997557572, -961.106440660672092 ], [ 1268.557323992211423, -962.708974235537426 ], [ 1262.681367551038647, -969.208138178046738 ], [ 1245.231557513616281, -973.615105508926263 ], [ 1235.794415350520694, -981.049080703440382 ], [ 1231.877111056405283, -989.28432268538711 ], [ 1223.152206037694214, -995.338338412656071 ], [ 1218.328293735471561, -1011.320527407586269 ], [ 1220.623911505507749, -1011.894431850095316 ], [ 1228.172962249280317, -1022.975202240077465 ], [ 1212.000522425316149, -1036.834814860700817 ], [ 1220.599233101148457, -1049.255174725791903 ], [ 1216.299877763232416, -1062.022957244452073 ], [ 1210.697687474432541, -1056.377339123956062 ], [ 1217.385573555635574, -1058.331591550281701 ], [ 1217.555858319219396, -1058.555163343043432 ] ] ] } },
{ "type": "Feature", "properties": { "code": "sicilia", "name": "sicilia", "provinceType": "land", "terrain": "island", "resource": null, "culture": "siceliot", "city": "Syracuse", "civs": "cart", "mapTypes": "", "maskBounds": null }, "geometry": { "type": "Polygon", "coordinates": [ [ [ 1187.704599367007177, -1248.264473136032848 ], [ 1199.370561045089971, -1241.264896129183171 ], [ 1205.495190926083296, -1249.722718345793282 ], [ 1215.994556436357925, -1241.848194213087254 ], [ 1224.744027694919851, -1239.223352835518654 ], [ 1234.076797037386086, -1247.972824094080806 ], [ 1243.409566379852322, -1253.80580493312209 ], [ 1255.658826141839199, -1247.681175052128765 ], [ 1268.783033029682429, -1252.055910681409841 ], [ 1285.698677462902424, -1248.556122177984889 ], [ 1300.572778602458129, -1240.97324708723113 ], [ 1311.947091238588655, -1244.473035590656082 ], [ 1322.738105790815325, -1238.348405709662529 ], [ 1327.112841420096402, -1239.223352835518654 ], [ 1334.112418426946078, -1237.181809541854363 ], [ 1339.653750224035321, -1233.973670080381453 ], [ 1318.946668245438332, -1269.263204156581878 ], [ 1321.571509623006932, -1277.137728289287679 ], [ 1314.863581658109524, -1285.887199547849832 ], [ 1323.321403874719408, -1292.303478470795426 ], [ 1323.61305291667145, -1296.678214100076502 ], [ 1326.82119237814436, -1306.010983442542738 ], [ 1315.738528783965648, -1314.177156617200581 ], [ 1317.488423035678125, -1321.176733624050257 ], [ 1314.571932616157483, -1324.384873085522941 ], [ 1304.364216147834895, -1323.509925959666816 ], [ 1293.864850637560494, -1323.801575001618858 ], [ 1279.86569662386114, -1316.218699910865098 ], [ 1276.074259078484147, -1303.386142064974138 ], [ 1261.49180698088071, -1304.552738232782303 ], [ 1248.07595105108544, -1302.219545897165744 ], [ 1232.326902785673838, -1292.303478470795426 ], [ 1222.994133443207602, -1286.470497631753915 ], [ 1214.244662184645449, -1281.804112960520797 ], [ 1208.120032303651897, -1280.929165834664673 ], [ 1195.287474457760936, -1277.137728289287679 ], [ 1191.204387870431901, -1278.304324457096072 ], [ 1180.121724276253417, -1269.846502240485961 ], [ 1182.454916611869976, -1253.222506849218007 ], [ 1187.704599367007177, -1248.264473136032848 ] ] ] } },
{ "type": "Feature", "properties": { "code": "aegyptus", "name": "Aegyptus", "provinceType": "land", "terrain": "river", "resource": null, "culture": "egyptian", "city": "Alexandria", "civs": "ptol", "mapTypes": null, "maskBounds": null }, "geometry": { "type": "Polygon", "coordinates": [ [ [ 1983.338014833035004, -1547.676750638910789 ], [ 1936.488456138338051, -1614.769945806624719 ], [ 1938.223624978882526, -1633.856803052612349 ], [ 1927.812611935616587, -1646.002984936422536 ], [ 1934.753287297793804, -1665.089842182410166 ], [ 1968.299884881650769, -1654.100439525629326 ], [ 1981.024456378975856, -1656.413997979688475 ], [ 1998.376144784419012, -1648.894933003996357 ], [ 2022.668508552039611, -1649.473322617511258 ], [ 2053.323158068322755, -1658.727556433747623 ], [ 2072.988404927825286, -1652.365270685085079 ], [ 2101.329495990049054, -1651.208491458055505 ], [ 2140.659989709053661, -1660.46272527429187 ], [ 2163.795574249644687, -1646.002984936422536 ], [ 2174.784976906425527, -1610.142828898506423 ], [ 2169.001080771277884, -1592.791140493063267 ], [ 2202.547678355134849, -1573.125893633560963 ], [ 2221.056145987607579, -1571.390724793016489 ], [ 2237.829444779536061, -1536.108958368615276 ], [ 2226.098980430439497, -1529.22250703270447 ], [ 2219.158305068262507, -1532.114455100278292 ], [ 2208.747292024996568, -1526.475156368509488 ], [ 2201.95121406619819, -1523.727805704314278 ], [ 2194.721343897263523, -1519.534481006332271 ], [ 2182.864356820211015, -1523.294013494178216 ], [ 2152.065109900549487, -1516.497935535379838 ], [ 2141.364902050526325, -1521.992636863770031 ], [ 2134.85801889848517, -1524.595390124586174 ], [ 2112.590018778166268, -1524.739987527965013 ], [ 2103.335784961930131, -1532.403649907035515 ], [ 2086.707083573380714, -1540.50110449624276 ], [ 2072.24734323551138, -1545.562013614496891 ], [ 2053.160485989524204, -1554.816247430733256 ], [ 2042.026485929364753, -1559.877156548987386 ], [ 2025.686979347571878, -1558.720377321957812 ], [ 2019.613888405666785, -1551.635104556401757 ], [ 2004.720355857661616, -1550.912117539508472 ], [ 1992.140381763715368, -1551.635104556401757 ], [ 1985.344303804916763, -1552.068896766537819 ], [ 1983.338014833035004, -1547.676750638910789 ] ] ] } },
{ "type": "Feature", "properties": { "code": "cyrenaica", "name": "Cyrenaica", "provinceType": "land", "terrain": "desert", "resource": null, "culture": "greek", "city": "Cyrene", "civs": "mace", "mapTypes": null, "maskBounds": null }, "geometry": { "type": "Polygon", "coordinates": [ [ [ 1530.176095565317837, -1602.631401513611763 ], [ 1525.201626867741652, -1629.990979350279986 ], [ 1518.569001937640451, -1634.965448047855944 ], [ 1508.620064542488308, -1645.743463559270594 ], [ 1494.525736566022942, -1644.914385443008086 ], [ 1488.722189752184249, -1689.684603721192161 ], [ 1497.012970914810921, -1707.095244162708241 ], [ 1475.456939891981619, -1739.429290696952421 ], [ 1504.474673961175085, -1780.054118393823273 ], [ 1627.178235168050151, -1605.118635862399742 ], [ 1676.093844027547675, -1528.843449166234223 ], [ 1784.703077257957602, -1549.570402072800789 ], [ 1808.746342629575111, -1591.024307885934377 ], [ 1869.269045116750021, -1607.605870211187721 ], [ 1936.424372534026134, -1624.187432536441293 ], [ 1937.253450650288869, -1610.922182676238435 ], [ 1982.023668928473171, -1550.399480189063524 ], [ 1978.65543117469997, -1546.25408960774962 ], [ 1965.219185807218992, -1546.566560430249183 ], [ 1958.032356889729272, -1537.504906577761858 ], [ 1944.283640699748503, -1540.629614802757487 ], [ 1933.347161912264028, -1535.942552465264043 ], [ 1917.723620787286109, -1535.942552465264043 ], [ 1880.539592909838575, -1528.130781902775198 ], [ 1871.47793905735125, -1537.192435755262295 ], [ 1852.104748062378576, -1535.005139997765355 ], [ 1847.730156547384695, -1528.755723547774323 ], [ 1850.229923127381198, -1520.319011340286124 ], [ 1836.481206937400657, -1511.882299132798153 ], [ 1803.046828929947878, -1513.757124067795758 ], [ 1772.737159147490502, -1504.69547021530866 ], [ 1748.676905815024384, -1504.69547021530866 ], [ 1740.865135252535538, -1494.07146225032352 ], [ 1746.802080880027233, -1485.322279220335986 ], [ 1738.677839495038597, -1479.38533359284429 ], [ 1685.870270492612917, -1466.886500692862001 ], [ 1661.810017160146799, -1466.886500692862001 ], [ 1637.124822182681783, -1475.635683722849535 ], [ 1614.626922962713479, -1481.260158527841668 ], [ 1594.003848677742553, -1493.758991427823958 ], [ 1571.818420280274267, -1511.257357487799254 ], [ 1564.63159136278432, -1535.630081642764708 ], [ 1569.006182877778201, -1549.066327010245914 ], [ 1577.13042426276661, -1559.690334975230826 ], [ 1563.381708072786068, -1579.0635259702035 ], [ 1533.696979935328045, -1595.936950385179671 ], [ 1530.176095565317837, -1602.631401513611763 ] ] ] } },
{ "type": "Feature", "properties": { "code": "thebais", "name": "Thebais", "provinceType": "land", "terrain": "river", "resource": null, "culture": "egyptian", "city": "Thebes", "civs": "ptol", "mapTypes": "nile", "maskBounds": null }, "geometry": { "type": "Polygon", "coordinates": [ [ [ 1937.634979440722873, -1668.307205593785966 ], [ 1906.949003144633025, -1711.690827253775296 ], [ 1911.181551599265958, -1744.493077777181952 ], [ 1895.309494894391946, -1760.365134482055964 ], [ 1887.902535098784028, -1802.690619028387118 ], [ 1910.123414485607782, -1871.469531416174959 ], [ 1942.92566500901421, -1910.620604621531129 ], [ 2012.762714510460683, -1928.608935553721949 ], [ 2032.867319669967856, -1962.469323190786781 ], [ 2095.297409375806183, -1975.166968554686036 ], [ 2140.797305263111866, -1981.515791236635778 ], [ 2177.832104241151683, -1928.608935553721949 ], [ 2194.762298059683872, -1933.899621122013286 ], [ 2219.099451673824205, -1877.818354098124473 ], [ 2257.192387765522199, -1876.760216984466297 ], [ 2294.227186743562015, -1912.736878848847709 ], [ 2330.2038486079432, -1902.155507712265035 ], [ 2373.587470267932531, -1908.504330394214549 ], [ 2376.034412343267832, -1906.255789027691208 ], [ 2360.955958473637111, -1854.142536180020898 ], [ 2376.828015178511123, -1857.316947520995654 ], [ 2378.944289405827931, -1850.968124839045913 ], [ 2347.464710274493882, -1830.334451122709424 ], [ 2274.717783710487311, -1693.834763460791692 ], [ 2283.447414898168063, -1690.131283562987619 ], [ 2259.63932984085659, -1672.142952630796799 ], [ 2233.979504834643194, -1642.25057916995047 ], [ 2232.921367720985018, -1621.352371175199323 ], [ 2225.514407925376872, -1618.442494112639224 ], [ 2220.223722357085535, -1610.771000038616648 ], [ 2233.450436277814333, -1600.454163180448404 ], [ 2228.688819266351857, -1591.195463435938336 ], [ 2219.959188078671104, -1571.355392554845594 ], [ 2201.177254311236538, -1572.678063946918428 ], [ 2170.49127801514669, -1593.840806220084232 ], [ 2173.136620799292359, -1609.448328646543814 ], [ 2175.252895026608712, -1612.093671430689483 ], [ 2163.613386776367861, -1648.070333295071123 ], [ 2142.186110224787626, -1659.709841545312202 ], [ 2101.976899905772825, -1650.980210357631449 ], [ 2070.761855052853662, -1652.831950306533145 ], [ 2054.360729791150334, -1659.180772988482659 ], [ 2024.203822051889119, -1649.922073243972818 ], [ 1998.543997045675951, -1649.65753896555816 ], [ 1980.820200391899789, -1657.064498761166305 ], [ 1967.858020749585876, -1654.154621698605979 ], [ 1934.791235947764562, -1664.206924278359566 ], [ 1937.634979440722873, -1668.307205593785966 ] ] ] } },
{ "type": "Feature", "properties": { "code": "caledonia", "name": "Caledonia", "provinceType": "land", "terrain": "highlands", "resource": null, "culture": "caledonian", "city": "Inverness", "civs": "brit", "mapTypes": null, "maskBounds": null }, "geometry": { "type": "Polygon", "coordinates": [ [ [ 598.514936193045401, -458.950635993335254 ], [ 607.293061969979135, -439.031042884139424 ], [ 613.370225969394824, -426.876714885308104 ], [ 629.238376412313528, -423.838132885600317 ], [ 649.495589743699043, -428.564815996256925 ], [ 662.662778409099701, -413.034285775528019 ], [ 677.180447963259326, -410.670944220199658 ], [ 680.894270407346653, -404.931400442973768 ], [ 691.191687184134253, -408.307602664871354 ], [ 703.852445516250214, -396.322084777134933 ], [ 730.8620632914309, -396.490894888229832 ], [ 750.781656400626503, -402.568058887645464 ], [ 763.611224843837363, -416.410487997425605 ], [ 764.961705732596442, -429.240056440636465 ], [ 757.365250733326775, -439.537473217424122 ], [ 755.170719289093427, -449.159649549832238 ], [ 746.223783401064793, -459.119446104430153 ], [ 737.952087957415756, -462.158028104137941 ], [ 732.381354291284765, -469.585672992312652 ], [ 722.083937514497165, -471.442584214356316 ], [ 721.577507181212468, -478.194988658151487 ], [ 699.632192738878075, -488.154785212749402 ], [ 704.527685960629583, -492.54384810121627 ], [ 716.006773515081477, -494.400759323259933 ], [ 723.77203862544593, -493.387898656690652 ], [ 743.354011512451962, -491.86860765683673 ], [ 748.24950473420347, -495.075999767639473 ], [ 747.067833956539289, -504.02293565566805 ], [ 726.641810514058875, -516.68369398778384 ], [ 722.927988069971548, -523.436098431579012 ], [ 712.630571293183834, -524.617769209243193 ], [ 696.931230961360029, -530.357312986469083 ], [ 687.646674851141711, -536.096856763694973 ], [ 677.349258074353997, -536.096856763694973 ], [ 660.130626742676327, -531.370173653038364 ], [ 630.082426967787796, -536.60328709697967 ], [ 617.590478746766735, -533.395894986176813 ], [ 605.267340636840459, -530.863743319753553 ], [ 609.994023747497067, -536.603287096979443 ], [ 620.46025063537968, -539.304248874497603 ], [ 606.28020130340974, -547.913564540336438 ], [ 591.087291304870632, -539.979489318877086 ], [ 581.127494750272717, -538.291388207928321 ], [ 574.71271052866723, -540.148299429971985 ], [ 568.804356640346555, -546.394273540482459 ], [ 557.325269085894661, -546.900703873767156 ], [ 550.910484864289288, -546.900703873767156 ], [ 546.014991642537666, -552.640247650992933 ], [ 528.965170421954895, -539.641869096687287 ], [ 520.834506682445976, -541.968397957059778 ], [ 500.926997612939033, -545.587945060606444 ], [ 496.402563733505644, -555.541699595359887 ], [ 493.687903405845645, -564.590567354226778 ], [ 483.734148871092145, -572.282104949263498 ], [ 474.685281112225312, -569.115001233660109 ], [ 467.446186905131924, -564.138123966283388 ], [ 448.896007999455037, -560.518576862736609 ], [ 433.965376197324815, -565.043010742170054 ], [ 416.320084067534594, -571.829661561320108 ], [ 416.320084067534594, -578.616312380470276 ], [ 404.556555981007762, -583.140746259903608 ], [ 402.294339041291039, -572.734548337206888 ], [ 390.530810954764206, -574.544321888980221 ], [ 385.101490299444151, -579.068755768413553 ], [ 381.481943195897429, -572.282104949263498 ], [ 398.674791937744317, -567.305227681886777 ], [ 414.962753903704538, -555.089256207416611 ], [ 429.440942317891427, -544.230614896776501 ], [ 433.512932809381482, -536.991520689683057 ], [ 444.371574120021592, -526.585322766986224 ], [ 448.896007999455037, -517.084011620176057 ], [ 459.754649310095147, -517.084011620176057 ], [ 463.826639801585202, -509.844917413082669 ], [ 480.114601767545423, -504.415596757762614 ], [ 503.641657940599089, -507.582700473365946 ], [ 519.02473313067253, -507.130257085422613 ], [ 519.477176518616034, -499.438719490385836 ], [ 519.024733130672644, -492.199625283292448 ], [ 559.292194657629807, -464.600578618748727 ], [ 574.675269847703362, -465.053022006692061 ], [ 598.514936193045401, -458.950635993335254 ] ] ] } },
{ "type": "Feature", "properties": { "code": "libyan", "name": "Libyan", "provinceType": "land", "terrain": "desert", "resource": null, "culture": "libyan", "city": null, "civs": "cart", "mapTypes": null, "maskBounds": null }, "geometry": { "type": "Polygon", "coordinates": [ [ [ 1505.853412269719911, -1778.887152833232904 ], [ 1675.750521211708246, -1529.376422792824997 ], [ 1787.37374254557426, -1549.074638322330429 ], [ 1808.303096545674407, -1590.522966832332486 ], [ 1937.162256467858924, -1625.405223499165686 ], [ 1941.266051369839261, -1636.485469734512662 ], [ 1930.185805134492284, -1648.796854440453899 ], [ 1936.751876977660459, -1669.726208440554274 ], [ 1906.794174193203617, -1712.816054911348374 ], [ 1913.770625526570484, -1748.108691068379585 ], [ 1895.71392795785664, -1763.292732205707125 ], [ 1887.095958663697957, -1804.330681225510943 ], [ 1911.308348585381964, -1871.632917617989506 ], [ 1672.491258304679377, -1955.416741804590174 ], [ 1505.853412269719911, -1778.887152833232904 ] ] ] } },
{ "type": "Feature", "properties": { "code": "crete", "name": "Crete", "provinceType": "land", "terrain": "island", "resource": null, "culture": "greek", "city": "Knossos", "civs": "mace", "mapTypes": null, "maskBounds": null }, "geometry": { "type": "Polygon", "coordinates": [ [ [ 1789.184405851224938, -1361.440739878567683 ], [ 1802.640709458370793, -1354.575278854513726 ], [ 1808.956933600500633, -1361.715358319529741 ], [ 1818.843197475138368, -1362.539213642416371 ], [ 1827.905606026889927, -1359.793029232794652 ], [ 1833.672593287095197, -1369.679293107432613 ], [ 1841.636528074997841, -1370.777766871281301 ], [ 1853.994357918295236, -1368.580819343583926 ], [ 1858.113634532727701, -1364.736161170113519 ], [ 1873.217648785646588, -1368.855437784545984 ], [ 1878.435399163927741, -1364.736161170113519 ], [ 1887.223189274716788, -1372.150859076092047 ], [ 1897.109453149354749, -1370.503148430319015 ], [ 1899.306400677051897, -1373.52395128090302 ], [ 1919.628165308251937, -1367.20772713877318 ], [ 1923.472823481722116, -1372.700095958016391 ], [ 1919.353546867289651, -1379.016320100146231 ], [ 1926.493626332305894, -1378.192464777259602 ], [ 1936.654508647905914, -1374.347806603789422 ], [ 1939.675311498489691, -1375.995517249562454 ], [ 1947.090009404468219, -1370.503148430319015 ], [ 1951.209286018900684, -1382.311741391692067 ], [ 1944.618443435808786, -1391.374149943443626 ], [ 1931.711376710587047, -1388.627965533821907 ], [ 1921.001257513062683, -1390.275676179594939 ], [ 1909.467282992651917, -1391.923386825367743 ], [ 1889.420136802413936, -1396.866518762686837 ], [ 1858.113634532727474, -1398.788847849421927 ], [ 1863.331384911008627, -1387.804110210935505 ], [ 1839.714198988262524, -1385.60716268323813 ], [ 1829.827935113625017, -1383.410215155540527 ], [ 1820.216289679949114, -1385.057925801313559 ], [ 1808.133078277614004, -1382.586359832654125 ], [ 1791.381353378922086, -1383.684833596502813 ], [ 1786.712839882565277, -1380.938649186881094 ], [ 1789.184405851224938, -1361.440739878567683 ] ] ] } },
{ "type": "Feature", "properties": { "code": "peloponeso", "name": "Peloponeso", "provinceType": "land", "terrain": "mountains", "resource": null, "culture": "greek", "city": "Spart", "civs": "spart", "mapTypes": null, "maskBounds": null }, "geometry": { "type": "Polygon", "coordinates": [ [ [ 1645.173884495212633, -1250.538981243005082 ], [ 1647.444560924925099, -1245.99762838358015 ], [ 1657.662604858631084, -1241.618466697706026 ], [ 1660.09547246189436, -1230.670562483021058 ], [ 1673.395148693067313, -1233.995481540814353 ], [ 1692.776993932398682, -1220.128136202213 ], [ 1722.782361039313173, -1231.968091871427987 ], [ 1735.108890229180815, -1234.887532995343918 ], [ 1745.164742989335991, -1240.077650548972542 ], [ 1750.354860542964389, -1241.537371110930508 ], [ 1762.032625038628112, -1248.187209226517098 ], [ 1765.438639683196925, -1254.350473821450805 ], [ 1768.844654327765511, -1262.784414846097206 ], [ 1787.334448112566861, -1264.730708928707827 ], [ 1789.442933368728518, -1272.840267606252382 ], [ 1776.305448311106375, -1271.056164697192571 ], [ 1773.223816013639407, -1276.895046945024433 ], [ 1766.249595550951199, -1280.463252763144055 ], [ 1765.276448509645888, -1279.652296895389554 ], [ 1762.681389732831803, -1274.786561688863003 ], [ 1752.138963452023972, -1267.325767705522139 ], [ 1745.002551815784727, -1266.839194184869257 ], [ 1750.354860542964161, -1279.165723374736899 ], [ 1759.113183914712181, -1297.006752465334785 ], [ 1762.519198559280767, -1300.412767109903371 ], [ 1770.790948410376132, -1304.791928795777494 ], [ 1762.194816212178921, -1314.036825688178169 ], [ 1773.548198360741253, -1324.417060795435191 ], [ 1766.89836024515489, -1328.471840134207469 ], [ 1750.67924289006578, -1317.929413853399637 ], [ 1741.109963650563259, -1309.333281655202427 ], [ 1732.18944910526443, -1316.794075638543291 ], [ 1730.567537369755428, -1328.309648960656432 ], [ 1726.026184510330722, -1330.255943043267052 ], [ 1720.998258130253362, -1328.309648960656432 ], [ 1720.998258130253362, -1319.551325588908412 ], [ 1717.754434659235585, -1309.333281655202427 ], [ 1709.48268480814022, -1304.14316410157403 ], [ 1699.9134055686377, -1299.277428895047251 ], [ 1696.993964444721769, -1303.170017060268492 ], [ 1696.831773271170732, -1309.171090481651618 ], [ 1697.480537965374424, -1314.361208035280015 ], [ 1691.803846891093144, -1315.496546250136134 ], [ 1682.883332345794315, -1313.712443341076323 ], [ 1680.45046474253104, -1307.873561093244462 ], [ 1679.963891221878384, -1300.088384762801752 ], [ 1673.151861932740985, -1296.195796597580284 ], [ 1671.367759023681174, -1294.898267209173127 ], [ 1672.827479585639139, -1286.788708531628799 ], [ 1679.801700048327348, -1282.571738019305712 ], [ 1677.206641271513035, -1274.462179341761157 ], [ 1669.421464941070553, -1266.514811837767638 ], [ 1659.689994528016996, -1267.163576531971103 ], [ 1659.203421007364341, -1260.027164895732085 ], [ 1645.579362429089542, -1254.350473821450805 ], [ 1645.173884495212633, -1250.538981243005082 ] ] ] } },
{ "type": "Feature", "properties": { "code": "lusitania", "name": "Lusitania", "provinceType": "land", "terrain": "hills", "resource": null, "culture": "lusitanian", "city": "Emerita", "civs": "iber", "mapTypes": null, "maskBounds": null }, "geometry": { "type": "Polygon", "coordinates": [ [ [ 222.439339174456109, -1273.594053985551909 ], [ 190.326544718721635, -1286.731106262897811 ], [ 173.540311253224104, -1275.783562698442893 ], [ 160.403258975878174, -1271.404545272660926 ], [ 134.129154421186342, -1273.594053985551909 ], [ 145.806534223271626, -1248.779621906120838 ], [ 150.915387886683874, -1227.796830074248419 ], [ 146.901288579717061, -1221.95814017320572 ], [ 152.739978480759703, -1211.922891905788674 ], [ 152.55751942135214, -1203.52977517303998 ], [ 156.389159668911361, -1196.231412796736777 ], [ 149.090797292608073, -1192.582231608585289 ], [ 132.669481945925668, -1198.96829868785062 ], [ 133.034400064740851, -1181.634688044130371 ], [ 120.079806846802512, -1181.817147103537991 ], [ 124.823742391399662, -1161.564191509296052 ], [ 130.11505511421953, -1152.806156657732117 ], [ 128.108005460736138, -1144.230580865575803 ], [ 140.697680559859293, -1139.851563439793836 ], [ 148.725879173792919, -1128.539101756523678 ], [ 164.052440164029804, -1101.71762002360947 ], [ 165.329653579882887, -1091.317453637377184 ], [ 182.306556762461412, -1053.099579053865 ], [ 209.664468130034294, -1059.536734669764655 ], [ 207.652857000065694, -1069.594790319607455 ], [ 207.25053477407198, -1089.308579393299851 ], [ 198.801768028203895, -1101.378246173111393 ], [ 196.387834672241581, -1108.620046240998363 ], [ 208.859823678046865, -1115.459524082891448 ], [ 247.080435147450146, -1111.436301822954192 ], [ 267.5988686731298, -1117.873457438853848 ], [ 270.817446481079628, -1123.103646376772303 ], [ 274.840668741016771, -1129.540801992671732 ], [ 268.403513125117286, -1140.403502094502073 ], [ 252.310624085368545, -1141.208146546489616 ], [ 257.138490797293173, -1155.289424456269671 ], [ 268.403513125117286, -1168.566057914062412 ], [ 266.391901995148714, -1176.21018020794304 ], [ 251.505979633381088, -1185.061269179804867 ], [ 240.240957305556975, -1191.90074702169818 ], [ 244.264179565494175, -1209.602924965421835 ], [ 251.505979633381088, -1218.856336163277319 ], [ 245.471146243475317, -1232.535291847063718 ], [ 238.229346175588375, -1239.777091914950688 ], [ 234.206123915651176, -1240.179414140944345 ], [ 224.952712717795663, -1249.43282533879983 ], [ 220.929490457858492, -1255.869980954699486 ], [ 222.439339174456109, -1273.594053985551909 ] ] ] } },
{ "type": "Feature", "properties": { "code": "tarraconensis", "name": "Tarraconensis", "provinceType": "land", "terrain": "hills", "resource": null, "culture": "iberian", "city": "Tarraco", "civs": "iber", "mapTypes": null, "maskBounds": null }, "geometry": { "type": "Polygon", "coordinates": [ [ [ 223.384516230610984, -1273.023545252932308 ], [ 221.368263604230862, -1256.445468102695713 ], [ 233.689807432109347, -1240.987531300448154 ], [ 243.995098633607739, -1234.4907172821122 ], [ 251.163996860737001, -1218.584724340669027 ], [ 244.163119685806038, -1209.399573487159842 ], [ 240.85870565923841, -1192.597468267325439 ], [ 266.621933662984418, -1175.123278838697843 ], [ 268.190130150168955, -1167.730352541970888 ], [ 257.660810879072756, -1154.288668366103366 ], [ 431.954649026153959, -1196.405945450488161 ], [ 466.006915605018321, -1217.912640131876287 ], [ 565.475378506437323, -1201.11053491204143 ], [ 569.955939898393126, -1231.130296238145547 ], [ 565.027322367241709, -1238.299194465274923 ], [ 558.754536418503562, -1248.156429527577529 ], [ 552.033694330569801, -1259.357833007467207 ], [ 558.754536418503562, -1266.078675095400968 ], [ 532.319224205964247, -1271.007292626552271 ], [ 515.741147055727652, -1274.591741740116959 ], [ 499.16306990549117, -1284.897032941615407 ], [ 473.62386997134297, -1305.507615344612077 ], [ 450.773006872368285, -1305.507615344612077 ], [ 440.467715670869893, -1311.332345154154609 ], [ 424.785750799024527, -1305.059559205416463 ], [ 404.623224535223358, -1311.332345154154609 ], [ 390.733484220160335, -1302.819278509438618 ], [ 361.161779033251889, -1311.332345154154609 ], [ 353.096768527731399, -1319.845411798870828 ], [ 322.180894923236224, -1321.637636355653058 ], [ 321.284782644845109, -1323.877917051630902 ], [ 316.356165113693692, -1335.975432809911808 ], [ 300.226144102652711, -1343.592387176236571 ], [ 279.16750556046037, -1332.390983696347121 ], [ 268.862214358961978, -1321.637636355653058 ], [ 272.894719611722223, -1309.540120597372379 ], [ 261.245259992636988, -1307.299839901394307 ], [ 262.14137227102816, -1298.114689047884895 ], [ 266.397905593386213, -1292.962043447135557 ], [ 256.316642461485628, -1286.68925749839741 ], [ 249.595800373551867, -1282.656752245637335 ], [ 243.098986355215942, -1276.832022436094803 ], [ 223.384516230610984, -1273.023545252932308 ] ] ] } },
{ "type": "Feature", "properties": { "code": "britannia", "name": "Britannia", "provinceType": "land", "terrain": "", "resource": null, "culture": "briton", "city": "Londinium", "civs": "brit", "mapTypes": null, "maskBounds": null }, "geometry": { "type": "Polygon", "coordinates": [ [ [ 561.251097033908763, -461.663234036424683 ], [ 546.061880723937406, -448.937133884827063 ], [ 537.851493529358322, -452.221288762658673 ], [ 525.535912737489525, -439.495188611061053 ], [ 530.462145054237112, -425.537530380276507 ], [ 522.662277219386851, -408.706236631389288 ], [ 537.851493529358322, -399.674810717352273 ], [ 521.841238499928977, -377.91728465171758 ], [ 531.283183773694873, -360.059692503507961 ], [ 529.641106334779124, -347.538852031774809 ], [ 541.135648407189819, -337.481127718415337 ], [ 544.830322644750481, -331.528597002345464 ], [ 561.045837354044352, -330.502298603023064 ], [ 576.235053664015709, -339.944243876789074 ], [ 586.908557016968643, -341.996840675433873 ], [ 596.966281330328002, -332.760155081532332 ], [ 610.923939561112547, -329.886519563429658 ], [ 615.439652518131084, -319.007756530612312 ], [ 620.776404194607494, -311.002629015897639 ], [ 631.449907547560429, -308.128993497794966 ], [ 651.97587553400831, -312.542076614881239 ], [ 663.675677286283758, -327.833922764785029 ], [ 675.991258078152441, -331.528597002345634 ], [ 665.31775472519962, -339.738984196924775 ], [ 684.406904952596051, -360.264952183372543 ], [ 669.628208002353631, -358.828134424321206 ], [ 677.222816157339366, -367.859560338358222 ], [ 690.359435668666038, -376.069947532937363 ], [ 693.643590546497649, -386.743450885890184 ], [ 678.043854876797241, -400.290589756945792 ], [ 686.048982391511913, -403.98526399450634 ], [ 680.917490394899914, -405.268136993659482 ], [ 677.325445997271572, -410.656203590102052 ], [ 662.700693806927461, -413.221949588408052 ], [ 649.666704135533223, -428.821685258108459 ], [ 628.730216789356177, -423.998082781293135 ], [ 613.643630319317026, -427.025663059294175 ], [ 598.24915432948103, -459.969841677542888 ], [ 573.61799274574355, -465.717112713748293 ], [ 560.173483714620261, -465.922372393612761 ], [ 561.251097033908763, -461.663234036424683 ] ] ] } },
{ "type": "Feature", "properties": { "code": "sea_adriatic", "name": "Adriatic Sea", "provinceType": "sea", "terrain": null, "resource": "fish", "culture": null, "city": null, "civs": null, "mapTypes": null, "maskBounds": null }, "geometry": { "type": "Polygon", "coordinates": [ [ [ 1192.247239463024698, -832.054425712972261 ], [ 1203.220042871896112, -824.739223440391356 ], [ 1210.53524514447713, -826.364823945409285 ], [ 1219.476047922076077, -824.739223440391356 ], [ 1229.026450889056832, -821.691222493482655 ], [ 1239.592854171673707, -816.204820789046948 ], [ 1246.908056444254498, -811.937619463374745 ], [ 1260.116060547525649, -814.985620410283445 ], [ 1270.072863640760943, -819.252821735955649 ], [ 1264.383261873197853, -829.20962482919083 ], [ 1258.287259979380451, -829.616024955445255 ], [ 1259.303260295016798, -835.102426659880962 ], [ 1261.132060863161996, -843.027229121843675 ], [ 1259.506460358144068, -847.497630510643148 ], [ 1267.634462883233937, -856.032033161987556 ], [ 1271.292064019524332, -862.940835308314036 ], [ 1277.794466039596273, -865.582436128968311 ], [ 1287.141668943449758, -845.262429816243412 ], [ 1296.082471721048705, -839.369627985553279 ], [ 1319.856879106936503, -847.700830573770304 ], [ 1323.920880369481438, -867.411236697113395 ], [ 1319.450478980681964, -882.041641242275318 ], [ 1335.909684093988972, -897.688046103073475 ], [ 1349.320888260387392, -913.334450963871518 ], [ 1389.960900885837191, -931.012856455942142 ], [ 1418.00250959739742, -939.54725910728655 ], [ 1477.743328156808502, -981.812872237754391 ], [ 1507.410537373386887, -1003.35207892924268 ], [ 1530.168944443638566, -1021.640084610694998 ], [ 1557.397752902689945, -1047.243292564728335 ], [ 1546.83134962007307, -1092.760106705232147 ], [ 1547.64414987258192, -1106.171310871630567 ], [ 1554.959352145162939, -1120.395315290537837 ], [ 1565.119355301525275, -1132.180918951918329 ], [ 1576.092158710396916, -1137.464120593226426 ], [ 1595.192964644358426, -1163.067328547259649 ], [ 1606.572168179484379, -1172.820931577367674 ], [ 1617.544971588355565, -1182.98093473373001 ], [ 1641.116178911116549, -1178.916933471185075 ], [ 1650.869781941224346, -1189.48333675380195 ], [ 1651.682582193733424, -1198.017739405146585 ], [ 1646.399380552424873, -1208.58414268776346 ], [ 1648.837781309951879, -1221.588946727907341 ], [ 1660.216984845077832, -1216.712145212853329 ], [ 1669.970587875185629, -1223.21454723292527 ], [ 1684.600992420347666, -1221.182546601652803 ], [ 1691.916194692928457, -1219.150545970380335 ], [ 1689.88419406165599, -1225.652947990452276 ], [ 1668.75138749642224, -1237.032151525578229 ], [ 1661.029785097586682, -1232.968150263033294 ], [ 1656.152983582532897, -1245.160154050668098 ], [ 1646.805780678679412, -1252.475356323249116 ], [ 1626.271384789715967, -1267.834297593591145 ], [ 1359.731929378711584, -1262.125874331082059 ], [ 1368.520291983055358, -1250.235736689910482 ], [ 1378.274216330832132, -1237.591760683533266 ], [ 1391.279448794534346, -1230.005375079706937 ], [ 1390.55693587988435, -1217.000142616004723 ], [ 1398.865834398360903, -1205.801192438927728 ], [ 1413.316092691363338, -1197.131037463126177 ], [ 1420.541221837864668, -1187.015856658024404 ], [ 1422.347504124490115, -1170.39805962107107 ], [ 1395.975782739760461, -1158.115340072018853 ], [ 1389.834422965234353, -1151.251467382842748 ], [ 1395.975782739760461, -1141.136286577740975 ], [ 1397.420808569060682, -1136.801209089840086 ], [ 1405.36845063021201, -1117.293360394286765 ], [ 1414.399862063338787, -1105.733153759884772 ], [ 1423.070017039140112, -1102.481845643959105 ], [ 1434.99148013086733, -1111.513257077085655 ], [ 1443.300378649343656, -1116.570847479636541 ], [ 1470.394612948723534, -1129.93733640066398 ], [ 1479.426024381850084, -1137.52372200449031 ], [ 1485.567384156376193, -1138.246234919140534 ], [ 1491.347487473577303, -1124.879745998113094 ], [ 1484.844871241726196, -1117.293360394286765 ], [ 1472.200895235348753, -1105.913781988547271 ], [ 1469.491471805410811, -1098.146768156058442 ], [ 1453.776815911770655, -1094.353575354145278 ], [ 1445.8291738506191, -1092.366664838857332 ], [ 1436.255877731505052, -1083.154625177068283 ], [ 1431.198287328954166, -1074.84572665859173 ], [ 1427.5857227557035, -1073.400700829291509 ], [ 1399.046462627023402, -1066.175571682790178 ], [ 1375.56479290089419, -1055.879762649025906 ], [ 1372.494113013631022, -1046.848351215899129 ], [ 1371.410343641656027, -1039.984478526723024 ], [ 1383.151178504720519, -1031.314323550921472 ], [ 1374.300395300256469, -1026.437361377033085 ], [ 1354.070033690052924, -1029.327413035633526 ], [ 1318.305644414871495, -1021.379770974482199 ], [ 1288.863243142878673, -996.091818961727768 ], [ 1277.483664737139179, -980.377163068087384 ], [ 1269.89727913331285, -954.727954598007727 ], [ 1259.782098328211077, -934.13633653047907 ], [ 1240.816134318645254, -927.633720298627964 ], [ 1226.907760711630317, -920.769847609451745 ], [ 1201.348866355881682, -894.849696796378453 ], [ 1196.471904181993295, -866.129808439035628 ], [ 1208.032110816395289, -860.981903922153492 ], [ 1192.247239463024698, -832.054425712972261 ] ] ] } },
{ "type": "Feature", "properties": { "code": "sea_med_central", "name": "central Mediterranean sea", "provinceType": "sea", "terrain": null, "resource": "fish", "culture": null, "city": null, "civs": null, "mapTypes": null, "maskBounds": null }, "geometry": { "type": "Polygon", "coordinates": [ [ [ 1121.311285073264116, -1307.656267516472326 ], [ 1185.521912341861707, -1270.48169383465256 ], [ 1204.10919918277159, -1279.141679749167224 ], [ 1249.732539610459298, -1296.884089915490222 ], [ 1283.52760659393175, -1300.263596613837535 ], [ 1302.114893434841406, -1317.161130105573648 ], [ 1315.632920228230432, -1314.626500081813219 ], [ 1321.547056950338174, -1299.41871993925065 ], [ 1318.16755025199086, -1278.296803074580566 ], [ 1320.702180275751289, -1261.399269582844227 ], [ 1329.995823696206116, -1245.346612765694999 ], [ 1336.754837092900516, -1236.052969345239944 ], [ 1350.272863886289542, -1231.828585972305973 ], [ 1356.187000608397284, -1252.950502836976284 ], [ 1372.239657425546511, -1259.709516233670684 ], [ 1628.237289825349535, -1265.623652955778425 ], [ 1646.824576666259418, -1250.838311150509298 ], [ 1664.355767663935694, -1263.933899606604655 ], [ 1679.985986143791479, -1274.283638870293089 ], [ 1678.296232794617936, -1289.280199844208937 ], [ 1684.210369516725677, -1301.953349963011078 ], [ 1689.068410395599813, -1306.388952504591771 ], [ 1702.163998851695396, -1298.15140492737055 ], [ 1714.625929801850816, -1303.854322480831343 ], [ 1722.441039041778595, -1309.768459202939084 ], [ 1742.084421725921857, -1310.190897540232527 ], [ 1756.869763531191211, -1316.105034262340268 ], [ 1764.262434433825774, -1321.174294309861125 ], [ 1772.07754367375378, -1327.722088537908803 ], [ 1803.126761464819538, -1354.758142124686401 ], [ 1791.298488020603827, -1363.629347207847559 ], [ 1787.074104647669628, -1382.639072386050884 ], [ 1803.971638139405968, -1516.55202530805991 ], [ 1751.589284315023633, -1508.103258562191741 ], [ 1740.605887545395035, -1495.430108443389599 ], [ 1742.718079231862248, -1486.136465022934772 ], [ 1720.751285692605052, -1478.532574951653487 ], [ 1686.111342034545942, -1475.575506590599616 ], [ 1653.583590062953817, -1470.928684880372202 ], [ 1647.24701500355286, -1475.997944927893059 ], [ 1624.857783127002449, -1483.179396661880901 ], [ 1610.494879659026765, -1489.093533383988643 ], [ 1590.640277806236554, -1498.809615141736913 ], [ 1579.234442699314741, -1511.905203597832497 ], [ 1569.095922604273028, -1525.845668728514738 ], [ 1567.828607592392927, -1534.716873811676123 ], [ 1572.052990965326899, -1544.010517232131178 ], [ 1577.96712768743464, -1562.597804073040834 ], [ 1574.165182651793884, -1566.822187445975032 ], [ 1567.406169255099485, -1577.805584215603403 ], [ 1557.690087497351215, -1587.521665973351674 ], [ 1551.35351243795003, -1594.703117707339516 ], [ 1536.990608969974346, -1596.392871056513286 ], [ 1535.723293958094018, -1598.927501080273714 ], [ 1510.376993720489963, -1601.462131104033915 ], [ 1476.159488399724296, -1590.056295997112102 ], [ 1451.658064836706671, -1575.270954191842975 ], [ 1399.275711012324564, -1562.175365735747391 ], [ 1357.876753957571054, -1559.640735711986963 ], [ 1338.867028779367956, -1525.845668728514511 ], [ 1329.150947021619459, -1510.215450248658726 ], [ 1310.563660180709803, -1504.723751863844427 ], [ 1285.217359943105521, -1505.568628538431312 ], [ 1278.035908209117679, -1505.14619020113787 ], [ 1244.663279562938669, -1492.050601745042286 ], [ 1223.541362698268586, -1488.248656709401757 ], [ 1194.393117425023547, -1495.007670106096157 ], [ 1163.977557139898408, -1486.558903360227987 ], [ 1145.390270298988753, -1482.756958324587458 ], [ 1135.25175020394704, -1477.687698277066602 ], [ 1099.344491534007602, -1461.212603122623705 ], [ 1090.473286450846217, -1457.410658086983176 ], [ 1083.71427305415159, -1449.384329678408449 ], [ 1112.017641652809971, -1417.279016044109767 ], [ 1120.888846735971583, -1399.536605877786769 ], [ 1110.75032664092987, -1383.483949060637315 ], [ 1094.697669823780416, -1364.896662219727659 ], [ 1090.473286450846444, -1352.645950438218733 ], [ 1093.007916474606873, -1344.197183692350791 ], [ 1110.75032664092987, -1337.015731958362949 ], [ 1120.466408398678141, -1323.07526682768048 ], [ 1121.311285073265026, -1312.936746732638767 ], [ 1112.017641652809971, -1312.936746732638767 ], [ 1099.34449153400783, -1320.540636803920052 ], [ 1089.628409776259559, -1325.609896851440908 ], [ 1082.024519704978275, -1328.989403549788221 ], [ 1121.311285073264116, -1307.656267516472326 ] ] ] } }
]
}
